STARLINK-35823          
1 66360U 25254N   25327.83335647 -.00116105  00000+0 -79847-3 0  9990
2 66360  53.1582   8.7481 0001078 105.7369 284.2874 15.74216005  3887
STARLINK-35813          
1 66361U 25254P   25327.83335647  .00055983  00000+0  38462-3 0  9993
2 66361  53.1584   8.7525 0000913 113.4712 274.6459 15.74151725  3883
STARLINK-35822          
1 66362U 25254Q   25327.83335647 -.00082605  00000+0 -56496-3 0  9994
2 66362  53.1583   8.7406 0000918  78.7220 315.1393 15.74201567  3881
STARLINK-35806          
1 66363U 25254R   25327.83335647 -.00085258  00000+0 -58331-3 0  9992
2 66363  53.1582   8.7441 0001275 111.9604 279.9784 15.74204905  3850
STARLINK-35797          
1 66364U 25254S   25327.83335647  .00040657  00000+0  28087-3 0  9990
2 66364  53.1583   8.7360 0000850  74.5294 321.2519 15.74162855  3886
STARLINK-35827          
1 66365U 25254T   25327.83335647 -.00102671  00000+0 -70440-3 0  9998
2 66365  53.1582   8.7287 0001127 117.2415 282.3643 15.74217776  3857
STARLINK-35845          
1 66366U 25254U   25327.83335647  .00043884  00000+0  30272-3 0  9996
2 66366  53.1583   8.7319 0000786  93.4069 304.2922 15.74161914  3884
STARLINK-35846          
1 66367U 25254V   25327.83335647 -.00100091  00000+0 -68638-3 0  9990
2 66367  53.1582   8.7240 0001279 119.0595 282.4631 15.74217314  3839
STARLINK-34861          
1 66368U 25254W   25327.83335647 -.00097176  00000+0 -66617-3 0  9995
2 66368  53.1579   8.7148 0001112 112.0766 293.2817 15.74213042  3933
STARLINK-35795          
1 66369U 25254X   25327.83335647 -.00074535  00000+0 -50860-3 0  9993
2 66369  53.1580   8.7196 0001146  66.5244 336.9113 15.74212381  3838
STARLINK-35824          
1 66370U 25254Y   25327.83335647  .00073830  00000+0  50472-3 0  9999
2 66370  53.1582   8.7119 0000795 102.8431 304.4290 15.74155375  3855
STARLINK-35804          
1 66371U 25254Z   25327.83335647  .00050272  00000+0  34601-3 0  9991
2 66371  53.1581   8.7034 0000957 115.7298 295.3934 15.74154522  3884
